GLOBALSTAR M094         
1 39074U 13005C   24156.94415893 -.00000081  00000+0  12957-3 0  9999
2 39074  51.9954 250.7118 0000772 143.5312 216.5607 12.62266548524737
GLOBALSTAR M096         
1 39075U 13005D   24156.56137336 -.00000095  00000+0  49063-4 0  9995
2 39075  52.0084 300.0960 0001110 123.0696 237.0278 12.62266294523956
GLOBALSTAR M078         
1 39076U 13005E   24156.93123940 -.00000155  00000+0 -28587-3 0  9998
2 39076  51.9896  23.9950 0001706  72.2749 287.8304 12.62275981522271
GLOBALSTAR M095         
1 39077U 13005F   24156.79863312 -.00000071  00000+0  18148-3 0  9995
2 39077  51.9822  21.7785 0001431  90.2216 269.8814 12.62263675522113
GLOBALSTAR M087         
1 52888U 22064A   24156.70481925 -.00000081  00000+0  89227-4 0  9990
2 52888  51.9755 251.9075 0008917 335.0462  25.0007 13.37575743 95858
